{
    "links": {
        "self": "http://www.neowsapp.com/rest/v1/neo/3136730?api_key=iIulBulltgU6a56xZRHN4H3l9WmuAYTsLGpBGhQ2"
    },
    "id": "3136730",
    "neo_reference_id": "3136730",
    "name": "(2002 RB182)",
    "designation": "2002 RB182",
    "nasa_jpl_url": "http://ssd.jpl.nasa.gov/sbdb.cgi?sstr=3136730",
    "absolute_magnitude_h": 23.1,
    "estimated_diameter": {
        "kilometers": {
            "estimated_diameter_min": 0.063760979,
            "estimated_diameter_max": 0.1425738833
        },
        "meters": {
            "estimated_diameter_min": 63.7609789875,
            "estimated_diameter_max": 142.5738833281
        },
        "miles": {
            "estimated_diameter_min": 0.0396192233,
            "estimated_diameter_max": 0.0885912765
        },
        "feet": {
            "estimated_diameter_min": 209.1895703015,
            "estimated_diameter_max": 467.7620993781
        }
    },
    "is_potentially_hazardous_asteroid": false,
    "close_approach_data": [
        {
            "close_approach_date": "2002-10-01",
            "close_approach_date_full": "2002-Oct-01 13:54",
            "epoch_date_close_approach": 1033480440000,
            "relative_velocity": {
                "kilometers_per_second": "14.3499798793",
                "kilometers_per_hour": "51659.9275654948",
                "miles_per_hour": "32099.4699920153"
            },
            "miss_distance": {
                "astronomical": "0.0654141227",
                "lunar": "25.4460937303",
                "kilometers": "9785813.423838649",
                "miles": "6080622.4993613962"
            },
            "orbiting_body": "Earth"
        }
    ],
    "orbital_data": {
        "orbit_id": "9",
        "orbit_determination_date": "2017-04-06 09:14:50",
        "first_observation_date": "2002-09-14",
        "last_observation_date": "2002-09-16",
        "data_arc_in_days": 2,
        "observations_used": 14,
        "orbit_uncertainty": "9",
        "minimum_orbit_intersection": ".00204344",
        "jupiter_tisserand_invariant": "3.096",
        "epoch_osculation": "2452532.5",
        "eccentricity": ".6522871352656534",
        "semi_major_axis": "2.559567680162745",
        "inclination": ".2282811695944311",
        "ascending_node_longitude": "165.512888276326",
        "orbital_period": "1495.713292818275",
        "perihelion_distance": ".889994610550834",
        "perihelion_argument": "254.2594462700339",
        "aphelion_distance": "4.229140749774657",
        "perihelion_time": "2452584.227101150581",
        "mean_anomaly": "347.5499158136641",
        "mean_motion": ".2406878388582584",
        "equinox": "J2000",
        "orbit_class": {
            "orbit_class_type": "APO",
            "orbit_class_description": "Near-Earth asteroid orbits which cross the Earth’s orbit similar to that of 1862 Apollo",
            "orbit_class_range": "a (semi-major axis) > 1.0 AU; q (perihelion) < 1.017 AU"
        }
    },
    "is_sentry_object": false
}